[{"OBJECT_NAME":"STARLINK-36518","OBJECT_ID":"2026-008J","EPOCH":"2026-03-09T10:47:08.437344","MEAN_MOTION":15.27570262,"ECCENTRICITY":0.00022514,"INCLINATION":43.0009,"RA_OF_ASC_NODE":206.7192,"ARG_OF_PERICENTER":268.7225,"MEAN_ANOMALY":91.3369,"EPHEMERIS_TYPE":0,"CLASSIFICATION_TYPE":"U","NORAD_CAT_ID":67453,"ELEMENT_SET_NO":999,"REV_AT_EPOCH":953,"BSTAR":0.0015077101,"MEAN_MOTION_DOT":0.00041449,"MEAN_MOTION_DDOT":0},{"OBJECT_NAME":"ELECTRON KICK STAGE R\/B","OBJECT_ID":"2024-047B","EPOCH":"2026-03-09T21:11:54.433824","MEAN_MOTION":15.27307897,"ECCENTRICITY":0.00092426,"INCLINATION":97.6338,"RA_OF_ASC_NODE":46.9382,"ARG_OF_PERICENTER":20.6031,"MEAN_ANOMALY":339.5579,"EPHEMERIS_TYPE":0,"CLASSIFICATION_TYPE":"U","NORAD_CAT_ID":59225,"ELEMENT_SET_NO":999,"REV_AT_EPOCH":10999,"BSTAR":0.00091229405,"MEAN_MOTION_DOT":0.00024409,"MEAN_MOTION_DDOT":0}]
